{
  "norad_id": 53967,
  "name": "STARLINK-4634",
  "history": [
    {
      "epoch": "2026-03-28T13:57:31.397760",
      "apogee_km": 540.6605849848183,
      "perigee_km": 538.8287299219246,
      "latitude_deg": 39.50100588629614,
      "longitude_deg": -7.4651136002503335,
      "semi_major_axis_km": 6917.881657453371,
      "eccentricity": 0.0001324,
      "inclination_deg": 53.2163,
      "raan_deg": 139.3473,
      "arg_perigee_deg": 92.769,
      "mean_anomaly_deg": 267.3453,
      "mean_motion_rev_day": 15.08839585
    }
  ]
}